NORAD_CAT_ID,OBJECT_NAME,OBJECT_TYPE,EPOCH,MEAN_MOTION,ECCENTRICITY,INCLINATION,RA_OF_ASC_NODE,ARG_OF_PERICENTER,MEAN_ANOMALY,BSTAR,MEAN_MOTION_DOT,MEAN_MOTION_DDOT,TLE_LINE0,TLE_LINE1,TLE_LINE2,SEMIMAJOR_AXIS,PERIOD,APOGEE,PERIGEE,DECAYED
49426.0,STARLINK-3114,PAYLOAD,2022-11-19 06:02:57,15.0884583,0.0002377,53.2163,245.0416,37.0591,323.0565,0.00010247,1.343e-05,0.0,0 STARLINK-3114,1 49426U 21104U   22323.25205249  .00001343  00000-0  10247-3 0  9992,2 49426  53.2163 245.0416 0002377  37.0591 323.0565 15.08845830 56493,6917.863,95.437,541.372,538.0830000000002,0.0
49426.0,STARLINK-3114,PAYLOAD,2022-11-19 18:46:02,15.08847527,0.0002351,53.2161,242.6625,36.9581,323.1573,0.00021125,3.076e-05,0.0,0 STARLINK-3114,1 49426U 21104U   22323.78196861  .00003076  00000-0  21125-3 0  9991,2 49426  53.2161 242.6625 0002351  36.9581 323.1573 15.08847527 56579,6917.857,95.437,541.349,538.096,0.0
49426.0,STARLINK-3114,PAYLOAD,2022-11-19 23:32:11,15.08843566,0.0002359,53.2153,241.77,36.7925,323.3228,0.00019293,2.784e-05,0.0,0 STARLINK-3114,1 49426U 21104U   22323.98069352  .00002784  00000-0  19293-3 0  9995,2 49426  53.2153 241.7700 0002359  36.7925 323.3228 15.08843566 56604,6917.869000000002,95.437,541.366,538.1030000000002,0.0
49426.0,STARLINK-3114,PAYLOAD,2022-11-21 04:09:07,15.08846315,0.0002397,53.2154,236.4169,36.3784,323.7371,8.435e-05,1.055e-05,0.0,0 STARLINK-3114,1 49426U 21104U   22325.17300897  .00001055  00000-0  84350-4 0  9997,2 49426  53.2154 236.4169 0002397  36.3784 323.7371 15.08846315 57863,6917.861,95.437,541.384,538.068,0.0
49426.0,STARLINK-3114,PAYLOAD,2022-11-22 03:59:56,15.08829336,0.0002245,53.2157,231.9563,37.23,322.8848,-6.061100000000001e-05,-1.253e-05,0.0,0 STARLINK-3114,1 49426U 21104U   22326.16662331 -.00001253  00000-0 -60611-4 0  9997,2 49426  53.2157 231.9563 0002245  37.2300 322.8848 15.08829336 58011,6917.913000000001,95.438,541.331,538.225,0.0
49426.0,STARLINK-3114,PAYLOAD,2022-11-22 10:21:28,15.0882925,0.0002306,53.2158,230.7668,35.5646,324.55,-6.5927e-05,-1.337e-05,0.0,0 STARLINK-3114,1 49426U 21104U   22326.43158499 -.00001337  00000-0 -65927-4 0  9990,2 49426  53.2158 230.7668 0002306  35.5646 324.5500 15.08829250 56979,6917.913000000001,95.438,541.374,538.183,0.0
49426.0,STARLINK-3114,PAYLOAD,2022-11-22 18:18:24,15.088389,0.0002247,53.2155,229.2804,29.2518,330.86,-2.1952e-05,-6.38e-06,0.0,0 STARLINK-3114,1 49426U 21104U   22326.76277857 -.00000638  00000-0 -21952-4 0  9999,2 49426  53.2155 229.2804 0002247  29.2518 330.8600 15.08838900 58103,6917.884,95.438,541.303,538.194,0.0
49426.0,STARLINK-3114,PAYLOAD,2022-11-23 10:12:14,15.08851245,0.0002277,53.2155,226.3071,32.8243,327.289,-3.6082e-05,-8.63e-06,0.0,0 STARLINK-3114,1 49426U 21104U   22327.42517022 -.00000863  00000-0 -36082-4 0  9994,2 49426  53.2155 226.3071 0002277  32.8243 327.2890 15.08851245 58204,6917.846,95.437,541.286,538.136,0.0
49426.0,STARLINK-3114,PAYLOAD,2022-11-23 18:09:11,15.088332,0.0002323,53.2155,224.8201,31.6187,328.4945,0.00017042,2.425e-05,0.0,0 STARLINK-3114,1 49426U 21104U   22327.75637952  .00002425  00000-0  17042-3 0  9993,2 49426  53.2155 224.8201 0002323  31.6187 328.4945 15.08833200 58258,6917.901,95.438,541.373,538.159,0.0
49426.0,STARLINK-3114,PAYLOAD,2022-11-24 10:03:02,15.08839344,0.0002384,53.2156,221.8464,32.6643,327.4496,0.00019902,2.881e-05,0.0,0 STARLINK-3114,1 49426U 21104U   22328.41877994  .00002881  00000-0  19902-3 0  9992,2 49426  53.2156 221.8464 0002384  32.6643 327.4496 15.08839344 57278,6917.882,95.438,541.3969999999998,538.0980000000002,0.0
49426.0,STARLINK-3114,PAYLOAD,2022-11-25 03:32:17,15.08834975,0.0002432,53.2162,218.5749,33.9815,326.1333,-1.2944e-05,-4.94e-06,0.0,0 STARLINK-3114,1 49426U 21104U   22329.14742721 -.00000494  00000-0 -12944-4 0  9992,2 49426  53.2162 218.5749 0002432  33.9815 326.1333 15.08834975 58466,6917.896,95.438,541.443,538.078,0.0
49426.0,STARLINK-3114,PAYLOAD,2022-11-25 09:53:49,15.08839484,0.0002449,53.2167,217.3856,34.8002,325.315,3.4415e-05,2.59e-06,0.0,0 STARLINK-3114,1 49426U 21104U   22329.41238328  .00000259  00000-0  34415-4 0  9999,2 49426  53.2167 217.3856 0002449  34.8002 325.3150 15.08839484 57426,6917.882,95.438,541.441,538.053,0.0
49426.0,STARLINK-3114,PAYLOAD,2022-11-26 00:12:17,15.08849577,0.0002426,53.2163,214.7094,34.7302,325.3848,0.00015448,2.172e-05,0.0,0 STARLINK-3114,1 49426U 21104U   22330.00853386  .00002172  00000-0  15448-3 0  9993,2 49426  53.2163 214.7094 0002426  34.7302 325.3848 15.08849577 58591,6917.851,95.437,541.394,538.038,0.0
49426.0,STARLINK-3114,PAYLOAD,2022-11-26 09:44:35,15.0885876,0.0002447,53.2163,212.9253,35.4819,324.6336,0.00018674,2.686e-05,0.0,0 STARLINK-3114,1 49426U 21104U   22330.40596471  .00002686  00000-0  18674-3 0  9990,2 49426  53.2163 212.9253 0002447  35.4819 324.6336 15.08858760 58657,6917.823,95.436,541.381,537.995,0.0
49426.0,STARLINK-3114,PAYLOAD,2022-11-26 16:06:08,15.08847917,0.0002452,53.2156,211.7358,37.2055,322.9106,0.00019595,2.832e-05,0.0,0 STARLINK-3114,1 49426U 21104U   22330.67093082  .00002832  00000-0  19595-3 0  9995,2 49426  53.2156 211.7358 0002452  37.2055 322.9106 15.08847917 58692,6917.856,95.437,541.4169999999998,538.025,0.0
49426.0,STARLINK-3114,PAYLOAD,2022-11-27 09:35:23,15.088393599999998,0.0002473,53.214,208.4654,35.37699999999999,324.7386,-5.417899999999999e-06,-3.75e-06,0.0,0 STARLINK-3114,1 49426U 21104U   22331.39957477 -.00000375  00000-0 -54179-5 0  9993,2 49426  53.2140 208.4654 0002473  35.3770 324.7386 15.08839360 58809,6917.882,95.438,541.4580000000002,538.0369999999998,0.0
49426.0,STARLINK-3114,PAYLOAD,2022-11-27 22:18:28,15.08835049,0.0002528,53.2156,206.0854,39.1323,320.9852,-4.915e-05,-1.071e-05,0.0,0 STARLINK-3114,1 49426U 21104U   22331.92950198 -.00001071  00000-0 -49150-4 0  9991,2 49426  53.2156 206.0854 0002528  39.1323 320.9852 15.08835049 58883,6917.896,95.438,541.509,538.012,0.0
49426.0,STARLINK-3114,PAYLOAD,2022-11-28 15:47:43,15.08838897,0.0002443,53.2157,202.815,35.8856,324.23,-3.9503e-07,-2.95e-06,0.0,0 STARLINK-3114,1 49426U 21104U   22332.65813832 -.00000295  00000-0 -39503-6 0  9995,2 49426  53.2157 202.8150 0002443  35.8856 324.2300 15.08838897 58998,6917.884,95.438,541.439,538.059,0.0
49426.0,STARLINK-3114,PAYLOAD,2022-11-29 01:20:01,15.0884475,0.0002425,53.2156,201.0306,39.3709,320.7459,-5.4323000000000005e-06,-3.75e-06,0.0,0 STARLINK-3114,1 49426U 21104U   22333.05557447 -.00000375  00000-0 -54323-5 0  9992,2 49426  53.2156 201.0306 0002425  39.3709 320.7459 15.08844750 57975,6917.866,95.437,541.408,538.053,0.0
49426.0,STARLINK-3114,PAYLOAD,2022-11-30 13:53:53,15.08846361,0.0002538,53.2151,194.1908,36.1499,323.9664,0.00016921,2.406e-05,0.0,0 STARLINK-3114,1 49426U 21104U   22334.57909236  .00002406  00000-0  16921-3 0  9992,2 49426  53.2151 194.1908 0002538  36.1499 323.9664 15.08846361 58206,6917.861,95.437,541.482,537.97,0.0
49426.0,STARLINK-3114,PAYLOAD,2022-11-30 15:29:16,15.08847734,0.0002037,53.2161,193.8918,39.5813,320.5328,0.00010525,1.388e-05,0.0,0 STARLINK-3114,1 49426U 21104U   22334.64533244  .00001388  00000-0  10525-3 0  9994,2 49426  53.2161 193.8918 0002037  39.5813 320.5328 15.08847734 59290,6917.857,95.437,541.131,538.313,0.0
49426.0,STARLINK-3114,PAYLOAD,2022-12-01 01:01:36,15.08839486,0.0002359,53.2151,192.109,32.8646,327.2492,2.0309e-05,3.5e-07,0.0,0 STARLINK-3114,1 49426U 21104U   22335.04277935  .00000035  00000-0  20309-4 0  9991,2 49426  53.2151 192.1090 0002359  32.8646 327.2492 15.08839486 59357,6917.882,95.438,541.379,538.115,0.0
49426.0,STARLINK-3114,PAYLOAD,2022-12-01 07:23:08,15.08842622,0.0002376,53.2153,190.9193,33.1877,326.9264,5.0649e-05,5.18e-06,0.0,0 STARLINK-3114,1 49426U 21104U   22335.30773600  .00000518  00000-0  50649-4 0  9996,2 49426  53.2153 190.9193 0002376  33.1877 326.9264 15.08842622 58312,6917.871999999999,95.437,541.381,538.094,0.0
49426.0,STARLINK-3114,PAYLOAD,2022-12-01 16:55:26,15.08842749,0.0001754,53.2151,189.135,44.5158,315.5975,7.3001e-05,8.74e-06,0.0,0 STARLINK-3114,1 49426U 21104U   22335.70517298  .00000874  00000-0  73001-4 0  9991,2 49426  53.2151 189.1350 0001754  44.5158 315.5975 15.08842749 59451,6917.871999999999,95.437,540.95,538.524,0.0
49426.0,STARLINK-3114,PAYLOAD,2022-12-02 13:35:27,15.08837091,0.0002293,53.2149,185.2693,31.0956,329.0172,6.8101e-05,7.96e-06,0.0,0 STARLINK-3114,1 49426U 21104U   22336.56629618  .00000796  00000-0  68101-4 0  9994,2 49426  53.2149 185.2693 0002293  31.0956 329.0172 15.08837091 58509,6917.889,95.438,541.341,538.168,0.0
49426.0,STARLINK-3114,PAYLOAD,2022-12-02 15:10:51,15.08834395,0.0002303,53.2151,184.9719,31.5556,328.5574,4.1773e-05,3.76e-06,0.0,0 STARLINK-3114,1 49426U 21104U   22336.63253875  .00000376  00000-0  41773-4 0  9990,2 49426  53.2151 184.9719 0002303  31.5556 328.5574 15.08834395 59594,6917.898,95.438,541.356,538.169,0.0
49426.0,STARLINK-3114,PAYLOAD,2022-12-02 23:07:47,15.08827505,0.0002383,53.215,183.4854,32.6806,327.4333,-1.8024e-05,-5.75e-06,0.0,0 STARLINK-3114,1 49426U 21104U   22336.96374649 -.00000575  00000-0 -18024-4 0  9995,2 49426  53.2150 183.4854 0002383  32.6806 327.4333 15.08827505 59647,6917.919,95.438,541.432,538.135,0.0
49426.0,STARLINK-3114,PAYLOAD,2022-12-03 13:26:16,15.08830411,0.0002358,53.215,180.80900000000003,34.0984,326.0159,-2.8025e-05,-7.34e-06,0.0,0 STARLINK-3114,1 49426U 21104U   22337.55990848 -.00000734  00000-0 -28025-4 0  9995,2 49426  53.2150 180.8090 0002358  34.0984 326.0159 15.08830411 58656,6917.91,95.438,541.406,538.143,0.0
49426.0,STARLINK-3114,PAYLOAD,2022-12-03 19:47:48,15.08834363,0.0002374,53.2149,179.6197,34.3995,325.7151,-1.398e-05,-5.11e-06,0.0,0 STARLINK-3114,1 49426U 21104U   22337.82486655 -.00000511  00000-0 -13980-4 0  9998,2 49426  53.2149 179.6197 0002374  34.3995 325.7151 15.08834363 59773,6917.898,95.438,541.405,538.12,0.0
